{
    "links": {
        "self": "http://www.neowsapp.com/rest/v1/neo/3976578?api_key=iIulBulltgU6a56xZRHN4H3l9WmuAYTsLGpBGhQ2"
    },
    "id": "3976578",
    "neo_reference_id": "3976578",
    "name": "(2020 AE2)",
    "designation": "2020 AE2",
    "nasa_jpl_url": "http://ssd.jpl.nasa.gov/sbdb.cgi?sstr=3976578",
    "absolute_magnitude_h": 22.9,
    "estimated_diameter": {
        "kilometers": {
            "estimated_diameter_min": 0.0699125232,
            "estimated_diameter_max": 0.1563291544
        },
        "meters": {
            "estimated_diameter_min": 69.9125232246,
            "estimated_diameter_max": 156.3291544087
        },
        "miles": {
            "estimated_diameter_min": 0.0434416145,
            "estimated_diameter_max": 0.097138403
        },
        "feet": {
            "estimated_diameter_min": 229.3718026961,
            "estimated_diameter_max": 512.8909429502
        }
    },
    "is_potentially_hazardous_asteroid": false,
    "close_approach_data": [
        {
            "close_approach_date": "2011-12-30",
            "close_approach_date_full": "2011-Dec-30 02:39",
            "epoch_date_close_approach": 1325212740000,
            "relative_velocity": {
                "kilometers_per_second": "12.9522765631",
                "kilometers_per_hour": "46628.195627273",
                "miles_per_hour": "28972.9474440686"
            },
            "miss_distance": {
                "astronomical": "0.2035398429",
                "lunar": "79.1769988881",
                "kilometers": "30449126.957974623",
                "miles": "18920210.1498828774"
            },
            "orbiting_body": "Earth"
        },
        {
            "close_approach_date": "2020-01-01",
            "close_approach_date_full": "2020-Jan-01 15:16",
            "epoch_date_close_approach": 1577891760000,
            "relative_velocity": {
                "kilometers_per_second": "13.2987974369",
                "kilometers_per_hour": "47875.6707729516",
                "miles_per_hour": "29748.079986671"
            },
            "miss_distance": {
                "astronomical": "0.2371472028",
                "lunar": "92.2502618892",
                "kilometers": "35476716.415338036",
                "miles": "22044209.3769194568"
            },
            "orbiting_body": "Earth"
        },
        {
            "close_approach_date": "2028-01-04",
            "close_approach_date_full": "2028-Jan-04 06:43",
            "epoch_date_close_approach": 1830580980000,
            "relative_velocity": {
                "kilometers_per_second": "13.9523067549",
                "kilometers_per_hour": "50228.3043175453",
                "miles_per_hour": "31209.914979977"
            },
            "miss_distance": {
                "astronomical": "0.3123871046",
                "lunar": "121.5185836894",
                "kilometers": "46732445.463627202",
                "miles": "29038195.0920993076"
            },
            "orbiting_body": "Earth"
        },
        {
            "close_approach_date": "2033-06-19",
            "close_approach_date_full": "2033-Jun-19 04:22",
            "epoch_date_close_approach": 2002767720000,
            "relative_velocity": {
                "kilometers_per_second": "11.4814680373",
                "kilometers_per_hour": "41333.2849341274",
                "miles_per_hour": "25682.8958525415"
            },
            "miss_distance": {
                "astronomical": "0.094695211",
                "lunar": "36.836437079",
                "kilometers": "14166201.86480057",
                "miles": "8802469.662845066"
            },
            "orbiting_body": "Mars"
        }
    ],
    "orbital_data": {
        "orbit_id": "1",
        "orbit_determination_date": "2020-01-06 08:12:11",
        "first_observation_date": "2019-12-28",
        "last_observation_date": "2020-01-06",
        "data_arc_in_days": 9,
        "observations_used": 14,
        "orbit_uncertainty": "7",
        "minimum_orbit_intersection": ".203363",
        "jupiter_tisserand_invariant": "4.730",
        "epoch_osculation": "2459000.5",
        "eccentricity": ".1368097150680291",
        "semi_major_axis": "1.365584785117341",
        "inclination": "25.00322496060143",
        "ascending_node_longitude": "275.4672704601991",
        "orbital_period": "582.8763454291695",
        "perihelion_distance": "1.178759519764202",
        "perihelion_argument": "200.2338923808282",
        "aphelion_distance": "1.552410050470481",
        "perihelion_time": "2458861.194885105127",
        "mean_anomaly": "86.03855990283668",
        "mean_motion": ".6176267107476002",
        "equinox": "J2000",
        "orbit_class": {
            "orbit_class_type": "AMO",
            "orbit_class_description": "Near-Earth asteroid orbits similar to that of 1221 Amor",
            "orbit_class_range": "1.017 AU < q (perihelion) < 1.3 AU"
        }
    },
    "is_sentry_object": false
}